STARLINK-1913_new
1 17179C 20088BK  21326.08926097 -.00019841  00000-0 -13296-2 0  3263
2 17179  53.0508 153.3376 0001972  81.8764 222.3017 15.06410030    10
STARLINK-1913_old
1 27179C 20088BK  21325.15035434  .00001767  00000-0  11838-3 0  3252
2 27179  53.0511 157.5528 0002033  79.8419 169.7650 15.06405272    11
